[{"OBJECT_NAME":"STARLINK-5624","OBJECT_ID":"2023-014AB","EPOCH":"2026-03-09T10:13:02.063712","MEAN_MOTION":14.98326154,"ECCENTRICITY":0.00037262,"INCLINATION":69.9988,"RA_OF_ASC_NODE":85.0849,"ARG_OF_PERICENTER":272.6312,"MEAN_ANOMALY":87.442,"EPHEMERIS_TYPE":0,"CLASSIFICATION_TYPE":"U","NORAD_CAT_ID":55416,"ELEMENT_SET_NO":999,"REV_AT_EPOCH":17152,"BSTAR":0.00015353689,"MEAN_MOTION_DOT":1.739e-5,"MEAN_MOTION_DDOT":0},{"OBJECT_NAME":"IRIDIUM 33 DEB","OBJECT_ID":"1997-051GB","EPOCH":"2026-03-09T18:44:19.060224","MEAN_MOTION":15.02189476,"ECCENTRICITY":0.0010038,"INCLINATION":86.3931,"RA_OF_ASC_NODE":331.664,"ARG_OF_PERICENTER":138.3098,"MEAN_ANOMALY":291.9123,"EPHEMERIS_TYPE":0,"CLASSIFICATION_TYPE":"U","NORAD_CAT_ID":34486,"ELEMENT_SET_NO":999,"REV_AT_EPOCH":90290,"BSTAR":0.0023709806,"MEAN_MOTION_DOT":0.00031372,"MEAN_MOTION_DDOT":0}]
